{"fetched_at":"2026-07-10T18:07:50.152Z","source":"https://celestrak.org/NORAD/elements/gp.php?GROUP=kuiper&FORMAT=JSON","constellation":"kuiper","records":[{"OBJECT_NAME":"KUIPER-00117","OBJECT_ID":"2025-228C","EPOCH":"2026-07-09T23:52:13.623168","CLASSIFICATION_TYPE":"U","MEAN_MOTION":14.7992431,"ECCENTRICITY":0.0000599,"INCLINATION":51.8971,"RA_OF_ASC_NODE":177.2429,"ARG_OF_PERICENTER":68.452,"MEAN_ANOMALY":291.6506,"EPHEMERIS_TYPE":0,"NORAD_CAT_ID":65949,"ELEMENT_SET_NO":999,"REV_AT_EPOCH":4137,"BSTAR":0.00025645232,"MEAN_MOTION_DOT":0.00001734,"MEAN_MOTION_DDOT":0},{"OBJECT_NAME":"KUIPER-00121","OBJECT_ID":"2025-228D","EPOCH":"2026-07-09T23:11:21.811488","CLASSIFICATION_TYPE":"U","MEAN_MOTION":14.79936798,"ECCENTRICITY":0.00005711,"INCLINATION":51.8986,"RA_OF_ASC_NODE":172.3806,"ARG_OF_PERICENTER":60.9068,"MEAN_ANOMALY":299.1952,"EPHEMERIS_TYPE":0,"NORAD_CAT_ID":65950,"ELEMENT_SET_NO":999,"REV_AT_EPOCH":4144,"BSTAR":0.000256756,"MEAN_MOTION_DOT":0.00001737,"MEAN_MOTION_DDOT":0},{"OBJECT_NAME":"KUIPER-00122","OBJECT_ID":"2025-228E","EPOCH":"2026-07-09T16:26:51.517536","CLASSIFICATION_TYPE":"U","MEAN_MOTION":14.79931187,"ECCENTRICITY":0.0000489,"INCLINATION":51.8983,"RA_OF_ASC_NODE":183.5962,"ARG_OF_PERICENTER":71.3134,"MEAN_ANOMALY":288.7881,"EPHEMERIS_TYPE":0,"NORAD_CAT_ID":65951,"ELEMENT_SET_NO":999,"REV_AT_EPOCH":4126,"BSTAR":0.00024568075,"MEAN_MOTION_DOT":0.00001652,"MEAN_MOTION_DDOT":0},{"OBJECT_NAME":"KUIPER-00123","OBJECT_ID":"2025-228F","EPOCH":"2026-07-09T17:15:28.144800","CLASSIFICATION_TYPE":"U","MEAN_MOTION":14.79937384,"ECCENTRICITY":0.00004841,"INCLINATION":51.8977,"RA_OF_ASC_NODE":183.4593,"ARG_OF_PERICENTER":45.9957,"MEAN_ANOMALY":314.1045,"EPHEMERIS_TYPE":0,"NORAD_CAT_ID":65952,"ELEMENT_SET_NO":999,"REV_AT_EPOCH":4126,"BSTAR":0.00025131321,"MEAN_MOTION_DOT":0.00001695,"MEAN_MOTION_DDOT":0},{"OBJECT_NAME":"KUIPER-00124","OBJECT_ID":"2025-228G","EPOCH":"2026-07-09T07:43:39.721728","CLASSIFICATION_TYPE":"U","MEAN_MOTION":14.79935153,"ECCENTRICITY":0.00005524,"INCLINATION":51.8968,"RA_OF_ASC_NODE":177.7033,"ARG_OF_PERICENTER":72.6572,"MEAN_ANOMALY":287.445,"EPHEMERIS_TYPE":0,"NORAD_CAT_ID":65953,"ELEMENT_SET_NO":999,"REV_AT_EPOCH":4131,"BSTAR":0.00024622964,"MEAN_MOTION_DOT":0.00001657,"MEAN_MOTION_DDOT":0},{"OBJECT_NAME":"KUIPER-00125","OBJECT_ID":"2025-228H","EPOCH":"2026-07-10T06:48:23.389056","CLASSIFICATION_TYPE":"U","MEAN_MOTION":14.79925429,"ECCENTRICITY":0.00006399,"INCLINATION":51.8986,"RA_OF_ASC_NODE":158.4948,"ARG_OF_PERICENTER":78.6434,"MEAN_ANOMALY":281.46,"EPHEMERIS_TYPE":0,"NORAD_CAT_ID":65954,"ELEMENT_SET_NO":999,"REV_AT_EPOCH":4166,"BSTAR":0.00026435169,"MEAN_MOTION_DOT":0.00001794,"MEAN_MOTION_DDOT":0},{"OBJECT_NAME":"KUIPER-00126","OBJECT_ID":"2025-228J","EPOCH":"2026-07-09T16:30:44.289504","CLASSIFICATION_TYPE":"U","MEAN_MOTION":14.7993715,"ECCENTRICITY":0.00006219,"INCLINATION":51.898,"RA_OF_ASC_NODE":181.1158,"ARG_OF_PERICENTER":70.2479,"MEAN_ANOMALY":289.8551,"EPHEMERIS_TYPE":0,"NORAD_CAT_ID":65955,"ELEMENT_SET_NO":999,"REV_AT_EPOCH":4129,"BSTAR":0.00024319253,"MEAN_MOTION_DOT":0.00001633,"MEAN_MOTION_DDOT":0},{"OBJECT_NAME":"KUIPER-00127","OBJECT_ID":"2025-228K","EPOCH":"2026-07-09T17:55:18.924384","CLASSIFICATION_TYPE":"U","MEAN_MOTION":14.79918988,"ECCENTRICITY":0.00006619,"INCLINATION":51.9002,"RA_OF_ASC_NODE":173.3255,"ARG_OF_PERICENTER":72.4701,"MEAN_ANOMALY":287.6334,"EPHEMERIS_TYPE":0,"NORAD_CAT_ID":65956,"ELEMENT_SET_NO":999,"REV_AT_EPOCH":4141,"BSTAR":0.00026014774,"MEAN_MOTION_DOT":0.00001762,"MEAN_MOTION_DDOT":0},{"OBJECT_NAME":"KUIPER-00128","OBJECT_ID":"2025-228L","EPOCH":"2026-07-09T15:53:46.620960","CLASSIFICATION_TYPE":"U","MEAN_MOTION":14.79932767,"ECCENTRICITY":0.00005658,"INCLINATION":51.8993,"RA_OF_ASC_NODE":173.7638,"ARG_OF_PERICENTER":69.372,"MEAN_ANOMALY":290.7303,"EPHEMERIS_TYPE":0,"NORAD_CAT_ID":65957,"ELEMENT_SET_NO":999,"REV_AT_EPOCH":4139,"BSTAR":0.00021916564,"MEAN_MOTION_DOT":0.0000145,"MEAN_MOTION_DDOT":0},{"OBJECT_NAME":"KUIPER-00129","OBJECT_ID":"2025-228M","EPOCH":"2026-07-10T07:25:21.079200","CLASSIFICATION_TYPE":"U","MEAN_MOTION":14.79935217,"ECCENTRICITY":0.00005717,"INCLINATION":51.8987,"RA_OF_ASC_NODE":165.8844,"ARG_OF_PERICENTER":71.8997,"MEAN_ANOMALY":288.2028,"EPHEMERIS_TYPE":0,"NORAD_CAT_ID":65958,"ELEMENT_SET_NO":999,"REV_AT_EPOCH":4156,"BSTAR":0.00025195769,"MEAN_MOTION_DOT":0.000017,"MEAN_MOTION_DDOT":0},{"OBJECT_NAME":"KUIPER-00130","OBJECT_ID":"2025-228N","EPOCH":"2026-07-09T15:57:35.073792","CLASSIFICATION_TYPE":"U","MEAN_MOTION":14.79985248,"ECCENTRICITY":0.00022754,"INCLINATION":51.904,"RA_OF_ASC_NODE":171.265,"ARG_OF_PERICENTER":267.1115,"MEAN_ANOMALY":92.9587,"EPHEMERIS_TYPE":0,"NORAD_CAT_ID":65959,"ELEMENT_SET_NO":999,"REV_AT_EPOCH":3172,"BSTAR":-0.0022306148,"MEAN_MOTION_DOT":-0.00017205,"MEAN_MOTION_DDOT":0},{"OBJECT_NAME":"KUIPER-00134","OBJECT_ID":"2025-228P","EPOCH":"2026-07-10T05:05:20.432256","CLASSIFICATION_TYPE":"U","MEAN_MOTION":15.41756085,"ECCENTRICITY":0.00065387,"INCLINATION":51.8701,"RA_OF_ASC_NODE":85.2946,"ARG_OF_PERICENTER":39.6386,"MEAN_ANOMALY":320.508,"EPHEMERIS_TYPE":0,"NORAD_CAT_ID":65960,"ELEMENT_SET_NO":999,"REV_AT_EPOCH":4267,"BSTAR":0.00099548943,"MEAN_MOTION_DOT":0.00042635,"MEAN_MOTION_DDOT":0},{"OBJECT_NAME":"KUIPER-00135","OBJECT_ID":"2025-228Q","EPOCH":"2026-07-09T15:09:03.705696","CLASSIFICATION_TYPE":"U","MEAN_MOTION":14.79924893,"ECCENTRICITY":0.00005343,"INCLINATION":51.9006,"RA_OF_ASC_NODE":171.4694,"ARG_OF_PERICENTER":72.1439,"MEAN_ANOMALY":287.9582,"EPHEMERIS_TYPE":0,"NORAD_CAT_ID":65961,"ELEMENT_SET_NO":999,"REV_AT_EPOCH":4142,"BSTAR":0.00013983423,"MEAN_MOTION_DOT":0.00000845,"MEAN_MOTION_DDOT":0},{"OBJECT_NAME":"KUIPER-00136","OBJECT_ID":"2025-228R","EPOCH":"2026-07-09T16:01:32.058624","CLASSIFICATION_TYPE":"U","MEAN_MOTION":14.79937435,"ECCENTRICITY":0.00006818,"INCLINATION":51.8996,"RA_OF_ASC_NODE":168.7636,"ARG_OF_PERICENTER":58.8296,"MEAN_ANOMALY":301.2733,"EPHEMERIS_TYPE":0,"NORAD_CAT_ID":65962,"ELEMENT_SET_NO":999,"REV_AT_EPOCH":4146,"BSTAR":0.00026302348,"MEAN_MOTION_DOT":0.00001785,"MEAN_MOTION_DDOT":0},{"OBJECT_NAME":"KUIPER-00137","OBJECT_ID":"2025-228S","EPOCH":"2026-07-10T05:03:21.668544","CLASSIFICATION_TYPE":"U","MEAN_MOTION":14.79941035,"ECCENTRICITY":0.00007039,"INCLINATION":51.9016,"RA_OF_ASC_NODE":163.856,"ARG_OF_PERICENTER":67.9745,"MEAN_ANOMALY":292.1293,"EPHEMERIS_TYPE":0,"NORAD_CAT_ID":65963,"ELEMENT_SET_NO":999,"REV_AT_EPOCH":4158,"BSTAR":0.00028607118,"MEAN_MOTION_DOT":0.00001961,"MEAN_MOTION_DDOT":0},{"OBJECT_NAME":"KUIPER-00138","OBJECT_ID":"2025-228T","EPOCH":"2026-07-09T15:20:41.472960","CLASSIFICATION_TYPE":"U","MEAN_MOTION":14.79928744,"ECCENTRICITY":0.0000649,"INCLINATION":51.8967,"RA_OF_ASC_NODE":163.8126,"ARG_OF_PERICENTER":73.6043,"MEAN_ANOMALY":286.499,"EPHEMERIS_TYPE":0,"NORAD_CAT_ID":65964,"ELEMENT_SET_NO":999,"REV_AT_EPOCH":4153,"BSTAR":0.0002555856,"MEAN_MOTION_DOT":0.00001728,"MEAN_MOTION_DDOT":0}]}
