KUIPER-00117            
1 65949U 25228C   26190.99460212  .00001734  00000+0  25645-3 0  9992
2 65949  51.8971 177.2429 0000599  68.4520 291.6506 14.79924310 41370
KUIPER-00121            
1 65950U 25228D   26190.96622467  .00001737  00000+0  25676-3 0  9990
2 65950  51.8986 172.3806 0000571  60.9068 299.1952 14.79936798 41446
KUIPER-00122            
1 65951U 25228E   26190.68531849  .00001652  00000+0  24568-3 0  9998
2 65951  51.8983 183.5962 0000489  71.3134 288.7881 14.79931187 41261
KUIPER-00123            
1 65952U 25228F   26190.71907575  .00001695  00000+0  25131-3 0  9990
2 65952  51.8977 183.4593 0000484  45.9957 314.1045 14.79937384 41260
KUIPER-00124            
1 65953U 25228G   26190.32198752  .00001657  00000+0  24623-3 0  9990
2 65953  51.8968 177.7033 0000552  72.6572 287.4450 14.79935153 41312
KUIPER-00125            
1 65954U 25228H   26191.28360404  .00001794  00000+0  26435-3 0  9997
2 65954  51.8986 158.4948 0000639  78.6434 281.4600 14.79925429 41667
KUIPER-00126            
1 65955U 25228J   26190.68801261  .00001633  00000+0  24319-3 0  9993
2 65955  51.8980 181.1158 0000621  70.2479 289.8551 14.79937150 41296
KUIPER-00127            
1 65956U 25228K   26190.74674681  .00001762  00000+0  26015-3 0  9993
2 65956  51.9002 173.3255 0000661  72.4701 287.6334 14.79918988 41417
KUIPER-00128            
1 65957U 25228L   26190.66234515  .00001450  00000+0  21917-3 0  9993
2 65957  51.8993 173.7638 0000565  69.3720 290.7303 14.79932767 41393
KUIPER-00129            
1 65958U 25228M   26191.30927175  .00001700  00000+0  25196-3 0  9998
2 65958  51.8987 165.8844 0000571  71.8997 288.2028 14.79935217 41567
KUIPER-00130            
1 65959U 25228N   26190.66498928 -.00017205  00000+0 -22306-2 0  9994
2 65959  51.9040 171.2650 0002275 267.1115  92.9587 14.79985248 31726
KUIPER-00134            
1 65960U 25228P   26191.21204204  .00042635  00000+0  99549-3 0  9997
2 65960  51.8701  85.2946 0006538  39.6386 320.5080 15.41756085 42670
KUIPER-00135            
1 65961U 25228Q   26190.63129289  .00000845  00000+0  13983-3 0  9997
2 65961  51.9006 171.4694 0000534  72.1439 287.9582 14.79924893 41428
KUIPER-00136            
1 65962U 25228R   26190.66773216  .00001785  00000+0  26302-3 0  9999
2 65962  51.8996 168.7636 0000681  58.8296 301.2733 14.79937435 41464
KUIPER-00137            
1 65963U 25228S   26191.21066746  .00001961  00000+0  28607-3 0  9991
2 65963  51.9016 163.8560 0000703  67.9745 292.1293 14.79941035 41589
KUIPER-00138            
1 65964U 25228T   26190.63936890  .00001728  00000+0  25559-3 0  9997
2 65964  51.8967 163.8126 0000649  73.6043 286.4990 14.79928744 41533
